[{"OBJECT_NAME":"IRIDIUM 108","OBJECT_ID":"2017-003H","EPOCH":"2026-03-09T14:45:22.333248","MEAN_MOTION":14.34217052,"ECCENTRICITY":0.000234,"INCLINATION":86.3916,"RA_OF_ASC_NODE":98.4141,"ARG_OF_PERICENTER":95.4169,"MEAN_ANOMALY":264.7294,"EPHEMERIS_TYPE":0,"CLASSIFICATION_TYPE":"U","NORAD_CAT_ID":41924,"ELEMENT_SET_NO":999,"REV_AT_EPOCH":48083,"BSTAR":9.2737e-7,"MEAN_MOTION_DOT":2.2e-7,"MEAN_MOTION_DDOT":0},{"OBJECT_NAME":"USA 32","OBJECT_ID":"1988-078A","EPOCH":"2026-03-09T18:09:05.776704","MEAN_MOTION":14.34414823,"ECCENTRICITY":0.00048246,"INCLINATION":84.9919,"RA_OF_ASC_NODE":170.8655,"ARG_OF_PERICENTER":77.4823,"MEAN_ANOMALY":282.691,"EPHEMERIS_TYPE":0,"CLASSIFICATION_TYPE":"U","NORAD_CAT_ID":19460,"ELEMENT_SET_NO":999,"REV_AT_EPOCH":9493,"BSTAR":8.1829241e-5,"MEAN_MOTION_DOT":2.5e-6,"MEAN_MOTION_DDOT":0}]
